STARLINK-5816           
1 55778U 23028AP  26068.86960899  .00000717  00000+0  67910-4 0  9995
2 55778  69.9999 223.8557 0003127 268.8110  91.2690 14.98317353166561
LEMUR-2-ALISIA          
1 62706U 25009DB  26068.73770453  .00009177  00000+0  72005-3 0  9995
2 62706  97.7037 151.6973 0006582 159.9869 200.1615 15.01147598 85230
